{
  "type": "FeatureCollection",
  "name": "boundaries",
  "crs": {
    "type": "name",
    "properties": {
      "name": "urn:ogc:def:crs:OGC:1.3:CRS84"
    }
  },
  "features": [
    {
      "type": "Feature",
      "properties": {
        "istd_source_layer": "південна міська громада межі",
        "istd_category": "boundaries",
        "FID": 0.0
      },
      "geometry": {
        "type": "Polygon",
        "coordinates": [
          [
            [
              35.95722895571492,
              49.870182840763796
            ],
            [
              35.956288718028155,
              49.8692093626066
            ],
            [
              35.955439806574105,
              49.8683294324996
            ],
            [
              35.9526253607004,
              49.86449907632927
            ],
            [
              35.949260899242596,
              49.86549885077713
            ],
            [
              35.94868915316157,
              49.86549102676833
            ],
            [
              35.94185857335382,
              49.86717811521336
            ],
            [
              35.93893142608916,
              49.86191560483292
            ],
            [
              35.93465394890129,
              49.86274019641702
            ],
            [
              35.932990912576344,
              49.86389779427027
            ],
            [
              35.931045163243475,
              49.86489047909932
            ],
            [
              35.930598098826714,
              49.874124225628584
            ],
            [
              35.93611253474793,
              49.875370019826974
            ],
            [
              35.93680879521015,
              49.87486002261461
            ],
            [
              35.94013820093183,
              49.87437273912087
            ],
            [
              35.9405734759601,
              49.87469738310462
            ],
            [
              35.94176534842894,
              49.874935676327105
            ],
            [
              35.94179931440553,
              49.87549430080681
            ],
            [
              35.94421769759468,
              49.87596996978879
            ],
            [
              35.94362464413571,
              49.8770368765939
            ],
            [
              35.93836612103441,
              49.8759842641742
            ],
            [
              35.93815665313713,
              49.876526684238165
            ],
            [
              35.9390841605616,
              49.87697312518808
            ],
            [
              35.938956069306634,
              49.877714897233574
            ],
            [
              35.93854927922491,
              49.87785949334699
            ],
            [
              35.938573710434326,
              49.87826170393671
            ],
            [
              35.93793029443293,
              49.87850181768241
            ],
            [
              35.9374516645743,
              49.879744825002085
            ],
            [
              35.938517323974246,
              49.88071858033421
            ],
            [
              35.93684620801896,
              49.880610594564224
            ],
            [
              35.93150578536356,
              49.88131792929034
            ],
            [
              35.92759012561705,
              49.88160577309531
            ],
            [
              35.9273474807803,
              49.881030039847
            ],
            [
              35.9246555987691,
              49.881187546184385
            ],
            [
              35.92438219746649,
              49.881821071261406
            ],
            [
              35.92320778670638,
              49.881873090139756
            ],
            [
              35.92286767632942,
              49.88082983977214
            ],
            [
              35.922346268459954,
              49.8807982348576
            ],
            [
              35.922091221466474,
              49.8811627385938
            ],
            [
              35.922186547322866,
              49.88216740695496
            ],
            [
              35.926772715261436,
              49.88355105580784
            ],
            [
              35.92637181431518,
              49.88436684168956
            ],
            [
              35.92805884834685,
              49.8847718036651
            ],
            [
              35.92809131516017,
              49.88530808883817
            ],
            [
              35.92718054908962,
              49.88571155410734
            ],
            [
              35.92673524415801,
              49.88640187938947
            ],
            [
              35.92668998090361,
              49.88733526456504
            ],
            [
              35.926082321485154,
              49.88759678693218
            ],
            [
              35.9260761279794,
              49.888066910577535
            ],
            [
              35.929731318070374,
              49.88890258128765
            ],
            [
              35.933685536957746,
              49.88959768797288
            ],
            [
              35.944624107706,
              49.89157141574432
            ],
            [
              35.95618283472086,
              49.89103088299846
            ],
            [
              35.96550473504989,
              49.890488424492894
            ],
            [
              35.967942390091544,
              49.892954888132834
            ],
            [
              35.96798079473301,
              49.89358053082041
            ],
            [
              35.97054035438516,
              49.89633475164236
            ],
            [
              35.971150098208696,
              49.897236676716275
            ],
            [
              35.97261317384152,
              49.899056647417204
            ],
            [
              35.9738241338011,
              49.90184539063747
            ],
            [
              35.974162312562434,
              49.90396276377841
            ],
            [
              35.97457427558425,
              49.90502640451467
            ],
            [
              35.97490500670753,
              49.908710531339814
            ],
            [
              35.97571256210925,
              49.91056967209667
            ],
            [
              35.976077245079544,
              49.91255208074113
            ],
            [
              35.976825347244585,
              49.914569397094155
            ],
            [
              35.97704876060099,
              49.917070159610255
            ],
            [
              35.978477361428965,
              49.91663061540088
            ],
            [
              35.980373993787644,
              49.91535097434404
            ],
            [
              35.9823230583632,
              49.91436088533093
            ],
            [
              35.984637384972736,
              49.91367466786899
            ],
            [
              35.985429090260105,
              49.91358713318774
            ],
            [
              35.98773780670219,
              49.91281147946034
            ],
            [
              35.99002149261102,
              49.91275257028599
            ],
            [
              35.99234808741383,
              49.91170780766025
            ],
            [
              35.99268339309391,
              49.91188600765441
            ],
            [
              35.99303696568939,
              49.91206221708716
            ],
            [
              35.99464144604117,
              49.91292419184122
            ],
            [
              35.995011029279084,
              49.913854580550165
            ],
            [
              35.997398554545846,
              49.91379284195244
            ],
            [
              35.99887117288599,
              49.91350856193091
            ],
            [
              35.99913418812423,
              49.91383744783144
            ],
            [
              35.99991068673724,
              49.91406352150126
            ],
            [
              36.0028004579004,
              49.913160622256775
            ],
            [
              36.009957889164376,
              49.910669808883554
            ],
            [
              36.01096307294541,
              49.91178505211009
            ],
            [
              36.01121308505741,
              49.91412841428229
            ],
            [
              36.0116094590585,
              49.91548326862783
            ],
            [
              36.01049145065846,
              49.91645226553604
            ],
            [
              36.01077468638218,
              49.91877238448852
            ],
            [
              36.01052172769548,
              49.91971890002568
            ],
            [
              36.01375521120886,
              49.92265608945568
            ],
            [
              36.01603008824976,
              49.923559222335584
            ],
            [
              36.01770465196795,
              49.92262043919493
            ],
            [
              36.01855557073082,
              49.92181498884549
            ],
            [
              36.01921170341853,
              49.92177551458683
            ],
            [
              36.01992587239385,
              49.92155548707375
            ],
            [
              36.021269604509584,
              49.920871448840145
            ],
            [
              36.0224074093414,
              49.92077463675159
            ],
            [
              36.02362313130234,
              49.91915396485507
            ],
            [
              36.02614188679266,
              49.91841682088379
            ],
            [
              36.026920583990865,
              49.91756843383993
            ],
            [
              36.02742302720495,
              49.9156306562021
            ],
            [
              36.02819366628444,
              49.91520768401676
            ],
            [
              36.02907538426475,
              49.91158150902983
            ],
            [
              36.02904134957018,
              49.91048579439294
            ],
            [
              36.02824097709091,
              49.90988008490842
            ],
            [
              36.02824476967642,
              49.90938763275665
            ],
            [
              36.03091640019718,
              49.9066769703563
            ],
            [
              36.0337756672101,
              49.905304112894
            ],
            [
              36.03460593529648,
              49.90528236929228
            ],
            [
              36.03551893502084,
              49.9049227563539
            ],
            [
              36.03564559328251,
              49.90418090694093
            ],
            [
              36.03828157075536,
              49.90256760876266
            ],
            [
              36.03537456951972,
              49.90088473470983
            ],
            [
              36.03646694250067,
              49.89981077700914
            ],
            [
              36.036988398331005,
              49.90018450269176
            ],
            [
              36.03833780157452,
              49.89905251441662
            ],
            [
              36.03886964534611,
              49.898143375256225
            ],
            [
              36.03829515265229,
              49.897822746657404
            ],
            [
              36.04686073668528,
              49.88942916906933
            ],
            [
              36.0472668863878,
              49.88955276514193
            ],
            [
              36.047633837579035,
              49.88987880928426
            ],
            [
              36.046465660040425,
              49.89058092913149
            ],
            [
              36.04703166901189,
              49.89076746153026
            ],
            [
              36.04785401069192,
              49.89007443515965
            ],
            [
              36.04980605422309,
              49.8913658505756
            ],
            [
              36.05320440024459,
              49.893066721574314
            ],
            [
              36.054672502764795,
              49.89437080959301
            ],
            [
              36.057128898741134,
              49.895962121480984
            ],
            [
              36.058829270899516,
              49.89545845214026
            ],
            [
              36.06057012286153,
              49.897236431301
            ],
            [
              36.06244171407176,
              49.89697436383104
            ],
            [
              36.06667402382306,
              49.89515034907805
            ],
            [
              36.06788565729884,
              49.89404403577983
            ],
            [
              36.07019915041897,
              49.89337849035224
            ],
            [
              36.070697165494366,
              49.8924924755658
            ],
            [
              36.072045433646764,
              49.892993847176385
            ],
            [
              36.08555655179729,
              49.89761430319984
            ],
            [
              36.08623616799284,
              49.89632054452443
            ],
            [
              36.08714894279501,
              49.89542340710989
            ],
            [
              36.08762097902559,
              49.89413517087935
            ],
            [
              36.08856969960187,
              49.893259443379904
            ],
            [
              36.09049243556298,
              49.89244724720219
            ],
            [
              36.0911355391633,
              49.8916691704271
            ],
            [
              36.09112532211288,
              49.889341927213664
            ],
            [
              36.093154448952596,
              49.88721761738806
            ],
            [
              36.094410998632874,
              49.886148984579336
            ],
            [
              36.095446897354634,
              49.88542193377862
            ],
            [
              36.09242201477531,
              49.88415992521823
            ],
            [
              36.08822147344482,
              49.88211231814429
            ],
            [
              36.081787043477156,
              49.878971445764144
            ],
            [
              36.081551132219,
              49.87853012267334
            ],
            [
              36.075124706714846,
              49.87550057208981
            ],
            [
              36.07570864862941,
              49.874880809849564
            ],
            [
              36.07773414666334,
              49.87460321022228
            ],
            [
              36.082389443177306,
              49.87483750382838
            ],
            [
              36.08790192558369,
              49.874936862703386
            ],
            [
              36.08822624339755,
              49.874592516656705
            ],
            [
              36.089502509018416,
              49.87451372314476
            ],
            [
              36.091162522214354,
              49.87339519504925
            ],
            [
              36.091921631109464,
              49.87335255454481
            ],
            [
              36.093116150648356,
              49.87253736236373
            ],
            [
              36.0933592769793,
              49.87309037017985
            ],
            [
              36.094865506348135,
              49.87390057636587
            ],
            [
              36.096481971305415,
              49.87318597475644
            ],
            [
              36.097426791249475,
              49.873339753638746
            ],
            [
              36.09811698623357,
              49.872761794417265
            ],
            [
              36.09727159230324,
              49.872538222576466
            ],
            [
              36.09798037530667,
              49.872250707458704
            ],
            [
              36.09890680347864,
              49.87157690462521
            ],
            [
              36.09889106310462,
              49.87133114529639
            ],
            [
              36.09995716314161,
              49.87067597693933
            ],
            [
              36.10090030805619,
              49.871344513144685
            ],
            [
              36.10294448255318,
              49.87028266766617
            ],
            [
              36.10578883895948,
              49.868471979760656
            ],
            [
              36.10615242440785,
              49.86874198097913
            ],
            [
              36.10640234707731,
              49.86858980805032
            ],
            [
              36.10601932746852,
              49.86828675864485
            ],
            [
              36.10690160892679,
              49.86773716425554
            ],
            [
              36.10761078434145,
              49.868266451409255
            ],
            [
              36.109588475323136,
              49.8669824687668
            ],
            [
              36.1109797730436,
              49.866542266489866
            ],
            [
              36.11215520317974,
              49.864899322047265
            ],
            [
              36.11226250162885,
              49.86010709478419
            ],
            [
              36.11172310124264,
              49.85656314843843
            ],
            [
              36.11063470342177,
              49.855786701001115
            ],
            [
              36.10903086771082,
              49.855068841390896
            ],
            [
              36.10951058216002,
              49.85391457650942
            ],
            [
              36.111160821038325,
              49.852661731105115
            ],
            [
              36.111536612145485,
              49.8525844952279
            ],
            [
              36.11247845074277,
              49.85108209832846
            ],
            [
              36.11215454718198,
              49.85088938135599
            ],
            [
              36.111549819445685,
              49.85117419161313
            ],
            [
              36.10939430601671,
              49.85274414033881
            ],
            [
              36.10865138050543,
              49.85239341289393
            ],
            [
              36.107132521264525,
              49.85242437972293
            ],
            [
              36.105348814915594,
              49.85163156632081
            ],
            [
              36.104826208488745,
              49.85157843734583
            ],
            [
              36.104063336891414,
              49.85101700315918
            ],
            [
              36.103365762492,
              49.852149107824424
            ],
            [
              36.10279709344763,
              49.854077843195135
            ],
            [
              36.10220097364741,
              49.85541004143366
            ],
            [
              36.0942446443143,
              49.85606908015126
            ],
            [
              36.09183383074966,
              49.85192601053568
            ],
            [
              36.091885819175964,
              49.851656061815596
            ],
            [
              36.09008780919176,
              49.84897367995454
            ],
            [
              36.08845956547629,
              49.84894997183188
            ],
            [
              36.08471998251368,
              49.84963851040564
            ],
            [
              36.0858723655319,
              49.85064708499257
            ],
            [
              36.08540131191391,
              49.85089322677871
            ],
            [
              36.08372402560346,
              49.8495908992073
            ],
            [
              36.08012107392038,
              49.85062673684143
            ],
            [
              36.07867072634395,
              49.84959105805595
            ],
            [
              36.073606897299406,
              49.85239017513377
            ],
            [
              36.07327062566632,
              49.85247742865996
            ],
            [
              36.070156057388736,
              49.85419377141615
            ],
            [
              36.065514105636375,
              49.85413768707185
            ],
            [
              36.060728477697815,
              49.85375930536864
            ],
            [
              36.06064882990974,
              49.852738925973284
            ],
            [
              36.05884510008378,
              49.85326075233136
            ],
            [
              36.057717432209984,
              49.85349194832573
            ],
            [
              36.05778425836458,
              49.85198093645741
            ],
            [
              36.05496940641151,
              49.85111805793249
            ],
            [
              36.05577174275017,
              49.84933167362534
            ],
            [
              36.0547832200129,
              49.84912695769757
            ],
            [
              36.05104199254543,
              49.853298721540895
            ],
            [
              36.05027026652711,
              49.855162593879186
            ],
            [
              36.04926381090364,
              49.85663259930049
            ],
            [
              36.04943093852659,
              49.856812833458264
            ],
            [
              36.046965933689705,
              49.860548008607005
            ],
            [
              36.04469326910206,
              49.86445710982038
            ],
            [
              36.042662923727406,
              49.864516056702506
            ],
            [
              36.03793008862856,
              49.86523334996201
            ],
            [
              36.033502239099555,
              49.866157867370426
            ],
            [
              36.03159669904868,
              49.86693230232768
            ],
            [
              36.028814147163274,
              49.86704146199072
            ],
            [
              36.02766541580667,
              49.86749670983134
            ],
            [
              36.026318872099424,
              49.86773051899177
            ],
            [
              36.02491256297765,
              49.867770049976315
            ],
            [
              36.024480989795585,
              49.86751276200573
            ],
            [
              36.021637742185824,
              49.86689319316694
            ],
            [
              36.020986237217095,
              49.86644021130664
            ],
            [
              36.01990210585646,
              49.86626706312481
            ],
            [
              36.018798615341254,
              49.86026727410205
            ],
            [
              36.00741839034011,
              49.86372724979173
            ],
            [
              36.00659158983795,
              49.86379347315295
            ],
            [
              36.00624408092632,
              49.86401649898959
            ],
            [
              36.0061263292204,
              49.86490775063964
            ],
            [
              36.00384839415113,
              49.864046479887364
            ],
            [
              36.00225684457219,
              49.8632261230367
            ],
            [
              35.998013100880975,
              49.86122675180619
            ],
            [
              35.99354921523833,
              49.86115477349774
            ],
            [
              35.992092510034794,
              49.853269996351926
            ],
            [
              35.975183258659946,
              49.85410840716945
            ],
            [
              35.97474825734114,
              49.8548804881813
            ],
            [
              35.974227624175185,
              49.85524493895679
            ],
            [
              35.97376387832298,
              49.85745144992838
            ],
            [
              35.97196426041489,
              49.85580238120936
            ],
            [
              35.97079906266855,
              49.85542943895095
            ],
            [
              35.97024774952915,
              49.85490646665693
            ],
            [
              35.968401281319636,
              49.85414813538847
            ],
            [
              35.96914228839433,
              49.85564816016903
            ],
            [
              35.97026602491301,
              49.85732020087197
            ],
            [
              35.97067785443576,
              49.857949556951965
            ],
            [
              35.97048119461451,
              49.8582881968224
            ],
            [
              35.9679500763586,
              49.85839853858989
            ],
            [
              35.96742997004561,
              49.858067078253015
            ],
            [
              35.9668769636253,
              49.85808124428324
            ],
            [
              35.96587882503354,
              49.85669199507914
            ],
            [
              35.96225957186215,
              49.857863727925306
            ],
            [
              35.96094204216333,
              49.86179146372654
            ],
            [
              35.96095902241496,
              49.86320094337754
            ],
            [
              35.96233144666044,
              49.863811364431186
            ],
            [
              35.96273425317083,
              49.864170325581064
            ],
            [
              35.96550505492532,
              49.86563592177552
            ],
            [
              35.962343160724046,
              49.86739669294477
            ],
            [
              35.95909195877524,
              49.86947017334118
            ],
            [
              35.958565052208776,
              49.869594830324
            ],
            [
              35.95722895571492,
              49.870182840763796
            ]
          ]
        ]
      }
    }
  ]
}