{
"type": "FeatureCollection",
"name": "settlements",
"crs": { "type": "name", "properties": { "name": "urn:ogc:def:crs:OGC:1.3:CRS84" } },
"features": [
{ "type": "Feature", "properties": { "FID": 0, "istd_source_layer": "населені пункти південна міська громада", "istd_category": "settlements" }, "geometry": { "type": "Polygon", "coordinates": [ [ [ 35.97774169290787, 49.880845896775483 ], [ 35.978908997739943, 49.881038764872457 ], [ 35.980016440785732, 49.880923044106638 ], [ 35.981602778121591, 49.880788036195909 ], [ 35.981652020080084, 49.881230999233296 ], [ 35.98319751668766, 49.881230374986281 ], [ 35.983428562602526, 49.8813280655732 ], [ 35.984355357002215, 49.881367001390132 ], [ 35.98486524547274, 49.880961617725809 ], [ 35.985104692617746, 49.880614454041641 ], [ 35.985643448694049, 49.880228713687011 ], [ 35.985546336131037, 49.879936189137979 ], [ 35.98408634518875, 49.879673080803357 ], [ 35.982021810625334, 49.879322211722837 ], [ 35.982081672411532, 49.87899432384225 ], [ 35.98333876992298, 49.878782159909399 ], [ 35.984476143861933, 49.879225774341919 ], [ 35.98585296494592, 49.87947651113128 ], [ 35.986720960846611, 49.878666433734743 ], [ 35.986840684419107, 49.878164950440215 ], [ 35.986750891739611, 49.876332563349948 ], [ 35.986062481197607, 49.876274697361893 ], [ 35.986092412090699, 49.875522433206392 ], [ 35.984759187754982, 49.875528105358192 ], [ 35.984510272234203, 49.875422620494597 ], [ 35.984176834930281, 49.873651366408474 ], [ 35.983697940640212, 49.87349704838492 ], [ 35.982889806525669, 49.872744740958559 ], [ 35.983308839029483, 49.872629000314269 ], [ 35.98333876992259, 49.87241680841273 ], [ 35.983787733319517, 49.872301066982558 ], [ 35.983847595105743, 49.871780227114236 ], [ 35.984296558502685, 49.871722355671018 ], [ 35.985912826731628, 49.871008602169653 ], [ 35.985044830830816, 49.870005471311195 ], [ 35.984775452792661, 49.870140509371112 ], [ 35.983817664212545, 49.87048774836294 ], [ 35.982560566701117, 49.870854275701518 ], [ 35.9824408431286, 49.871240090947623 ], [ 35.982081672411063, 49.871413706802869 ], [ 35.981782363479837, 49.872166034963556 ], [ 35.981722501693604, 49.872590420037973 ], [ 35.981932017945546, 49.873014801383093 ], [ 35.982351050449374, 49.873497048384976 ], [ 35.982710221166982, 49.874133607053814 ], [ 35.982710221166997, 49.87453868547437 ], [ 35.982590497594501, 49.874828025122994 ], [ 35.982740152060153, 49.874943760497018 ], [ 35.982901201035325, 49.875301812802014 ], [ 35.982306888486406, 49.875210811562148 ], [ 35.981872156159412, 49.875271675883887 ], [ 35.981542916335002, 49.875464566247743 ], [ 35.981483054548789, 49.87627469736212 ], [ 35.981213676510684, 49.877393427509361 ], [ 35.981123883831337, 49.878010646840465 ], [ 35.981093952938238, 49.878357829247079 ], [ 35.980915640077384, 49.878203526605283 ], [ 35.980659146609355, 49.877975140615249 ], [ 35.980465404182482, 49.877547733081855 ], [ 35.980315749716816, 49.87745129215687 ], [ 35.979238237564168, 49.877779190515966 ], [ 35.979208306671076, 49.878338541401213 ], [ 35.978759343274128, 49.878377117085485 ], [ 35.97868992880413, 49.879318213718683 ], [ 35.977801554694075, 49.879688672013408 ], [ 35.97774169290787, 49.880845896775483 ] ] ] } },
{ "type": "Feature", "properties": { "FID": 1, "istd_source_layer": "населені пункти південна міська громада", "istd_category": "settlements" }, "geometry": { "type": "Polygon", "coordinates": [ [ [ 35.935571685841175, 49.872062056813775 ], [ 35.936923775306319, 49.872132317524574 ], [ 35.939958981594486, 49.873727840073052 ], [ 35.941223837765904, 49.874357769198731 ], [ 35.94198225227737, 49.874416909928527 ], [ 35.944669414988887, 49.87449672226029 ], [ 35.945353747778135, 49.874888742473367 ], [ 35.944949025119669, 49.875325871472391 ], [ 35.946070615922835, 49.87559352771919 ], [ 35.946116381480408, 49.876123735540041 ], [ 35.946447861939852, 49.876254681157313 ], [ 35.94631729661242, 49.876545465319197 ], [ 35.947153957236004, 49.877003288892936 ], [ 35.947654052068948, 49.877025409205807 ], [ 35.947698457519422, 49.877311742714042 ], [ 35.947000074770855, 49.878017680906005 ], [ 35.947036950232892, 49.878844288773941 ], [ 35.947365802480554, 49.878931743681683 ], [ 35.947970941850244, 49.878907635121287 ], [ 35.948255915196285, 49.878717451746361 ], [ 35.948566538241224, 49.878726968074531 ], [ 35.948888620659325, 49.879145609427525 ], [ 35.948847302743509, 49.879573500730331 ], [ 35.948008156767891, 49.879960720327006 ], [ 35.948318050623023, 49.880179320171912 ], [ 35.948807900173144, 49.880253962538838 ], [ 35.94937797899091, 49.880317849286115 ], [ 35.949771692486188, 49.880142315764012 ], [ 35.950598231541186, 49.879990601755075 ], [ 35.951518981868965, 49.879836481543393 ], [ 35.952685712659786, 49.879737061805344 ], [ 35.953330705646017, 49.879703198458827 ], [ 35.953335138174729, 49.879554998168786 ], [ 35.954559413696813, 49.879515069551019 ], [ 35.954533736512396, 49.879315370988778 ], [ 35.954322285306645, 49.879163965296627 ], [ 35.95316266022855, 49.87915868832696 ], [ 35.952745265044811, 49.878725065990032 ], [ 35.952294741709849, 49.87863201610606 ], [ 35.952272789959096, 49.878493199268732 ], [ 35.951599301764261, 49.878501649812435 ], [ 35.950897638031101, 49.878711167485051 ], [ 35.950129002929664, 49.879148872706971 ], [ 35.949738681600486, 49.879158811922906 ], [ 35.94936002607394, 49.879360095086263 ], [ 35.949171594162088, 49.879364892257342 ], [ 35.94903508303409, 49.879115748077211 ], [ 35.948877161372394, 49.878736483567394 ], [ 35.948847266798765, 49.878467203155239 ], [ 35.9493530853103, 49.878140730013634 ], [ 35.949814277407093, 49.877745702828605 ], [ 35.950391619622344, 49.87748709187602 ], [ 35.950456990257806, 49.877232807515753 ], [ 35.951633260259761, 49.876627915922761 ], [ 35.952033834916648, 49.876565442763599 ], [ 35.952131079997471, 49.87617096879336 ], [ 35.952685720525707, 49.875982612792917 ], [ 35.953150925986478, 49.875874933246877 ], [ 35.953724858244918, 49.875781901646661 ], [ 35.95402962132561, 49.875695731348586 ], [ 35.954357751925393, 49.875992249295329 ], [ 35.954028725986518, 49.876122594261716 ], [ 35.954071043738374, 49.876374134779262 ], [ 35.955230956403064, 49.876605881415458 ], [ 35.955621255221175, 49.876595924080242 ], [ 35.955711563315404, 49.876088380562457 ], [ 35.956385547646342, 49.87608860418672 ], [ 35.956466735098573, 49.875873112098759 ], [ 35.956932377465264, 49.875883004976586 ], [ 35.957093262019157, 49.875979075051667 ], [ 35.957483289293229, 49.875964762811854 ], [ 35.957624070552406, 49.875952457557915 ], [ 35.957552393183974, 49.875000430060609 ], [ 35.957242590796419, 49.875003983609353 ], [ 35.956915428244045, 49.874833758910952 ], [ 35.9568661762452, 49.874138133874709 ], [ 35.955439905359604, 49.87417888603656 ], [ 35.954606581186148, 49.873886546383851 ], [ 35.954649263093707, 49.873371507255314 ], [ 35.954945778647968, 49.872819504836947 ], [ 35.955002353800587, 49.872752728973524 ], [ 35.9570139837315, 49.87269704125098 ], [ 35.957159974081677, 49.872549582554221 ], [ 35.957100720001904, 49.871910834436541 ], [ 35.957955869552002, 49.871788824752429 ], [ 35.95794478704228, 49.871497288167731 ], [ 35.957616583139249, 49.871309670059802 ], [ 35.956979593422929, 49.871582907243258 ], [ 35.956906992730055, 49.871497650139844 ], [ 35.957425609960517, 49.871162102744336 ], [ 35.957190461827125, 49.871063573509723 ], [ 35.956630409722045, 49.871382755352386 ], [ 35.956180653275688, 49.871080636665887 ], [ 35.956761241585959, 49.870656400431173 ], [ 35.95607688064149, 49.87026444796377 ], [ 35.956080242522646, 49.870098852580703 ], [ 35.956463753033233, 49.869758046020131 ], [ 35.956288718028155, 49.869209362606597 ], [ 35.955439806574105, 49.8683294324996 ], [ 35.955387751193655, 49.868801156332459 ], [ 35.955249733251179, 49.869079074987468 ], [ 35.954812397128194, 49.869090231360644 ], [ 35.954277306916609, 49.869818183598568 ], [ 35.954146978852272, 49.870222214631994 ], [ 35.954246304217023, 49.870524567590586 ], [ 35.954353065092356, 49.870948685221812 ], [ 35.954151558189871, 49.871180310932488 ], [ 35.954201836108282, 49.871562313942263 ], [ 35.954268940201345, 49.871778378293122 ], [ 35.954714622722783, 49.87179314435258 ], [ 35.954694432532747, 49.872124678374824 ], [ 35.954558796922448, 49.872110715824462 ], [ 35.954536300809416, 49.872625240166442 ], [ 35.954762774093297, 49.872802395300717 ], [ 35.954435182961788, 49.87317661376899 ], [ 35.95429705740608, 49.87356342155816 ], [ 35.954065786792277, 49.873970026500182 ], [ 35.953859835407059, 49.874349852250091 ], [ 35.953819625785499, 49.874795139731241 ], [ 35.953599842659848, 49.875610868728749 ], [ 35.952177313759286, 49.875934593053557 ], [ 35.950940451713045, 49.875103715920034 ], [ 35.950521125202307, 49.875079552810192 ], [ 35.950373813962059, 49.874874240281045 ], [ 35.95026051161026, 49.876331865791769 ], [ 35.948495730785538, 49.875906402011026 ], [ 35.94813288196724, 49.875924347777556 ], [ 35.947724568739467, 49.875638563797253 ], [ 35.945856312825804, 49.874841119491293 ], [ 35.944334094833415, 49.87419164901344 ], [ 35.94283407203806, 49.87346319582727 ], [ 35.941238304233586, 49.872711021435066 ], [ 35.939187922386942, 49.871796140720313 ], [ 35.938854907018516, 49.871639080516069 ], [ 35.938881016502172, 49.871403220941602 ], [ 35.939254344102736, 49.870670735430387 ], [ 35.938823439280107, 49.870455181837663 ], [ 35.937270853445682, 49.870189674465493 ], [ 35.936871365687672, 49.870269491262682 ], [ 35.936772949701044, 49.870646559549677 ], [ 35.935915913107543, 49.870737971738258 ], [ 35.935571685841175, 49.872062056813775 ] ] ] } },
{ "type": "Feature", "properties": { "FID": 2, "istd_source_layer": "населені пункти південна міська громада", "istd_category": "settlements" }, "geometry": { "type": "Polygon", "coordinates": [ [ [ 36.009662167334348, 49.909865884572035 ], [ 36.035374569519718, 49.900884734709827 ], [ 36.036466942500667, 49.899810777009137 ], [ 36.026570301161627, 49.893815169019518 ], [ 36.029023557405829, 49.892078520573243 ], [ 36.030387856759354, 49.893192707518978 ], [ 36.031060633687197, 49.892739551890323 ], [ 36.031107603089453, 49.892198234301105 ], [ 36.030031080224482, 49.891372707031238 ], [ 36.032243222621553, 49.89009527186326 ], [ 36.032741313972359, 49.889437611250699 ], [ 36.033912432563938, 49.890051569484953 ], [ 36.035702394481604, 49.888924500286542 ], [ 36.038325048727103, 49.888176278034976 ], [ 36.038145636762899, 49.887466671306754 ], [ 36.038422098038616, 49.887145820131117 ], [ 36.038892750802262, 49.886053295316493 ], [ 36.039223039724156, 49.885731030026562 ], [ 36.03846013211357, 49.885176108341689 ], [ 36.040531029903704, 49.884233237412992 ], [ 36.04344398777689, 49.883390164852294 ], [ 36.044090487701865, 49.883808734837601 ], [ 36.045126726546805, 49.883136876058728 ], [ 36.044387429024191, 49.882529105620684 ], [ 36.048229303623664, 49.880598735282916 ], [ 36.047547129324784, 49.880041748546823 ], [ 36.045405653760163, 49.88114340398009 ], [ 36.044336166396178, 49.880857914362657 ], [ 36.042733381395145, 49.880237978560316 ], [ 36.04132847301333, 49.879334069476791 ], [ 36.039414115638458, 49.879332047422345 ], [ 36.037158898092706, 49.878624618298026 ], [ 36.036479060852741, 49.878102350585749 ], [ 36.035249286692348, 49.877838401482748 ], [ 36.034737884717792, 49.877851800217144 ], [ 36.032934913529118, 49.877045329596214 ], [ 36.032651583466098, 49.876826258188949 ], [ 36.030197277408121, 49.875949684236588 ], [ 36.02929586541007, 49.877053439831599 ], [ 36.027288966102908, 49.878586794703786 ], [ 36.025709354380538, 49.88005668713356 ], [ 36.023385722443905, 49.88170277755502 ], [ 36.021478515420306, 49.88311147049609 ], [ 36.02003636051176, 49.882469610120495 ], [ 36.017099979752537, 49.884671632012868 ], [ 36.017690264407051, 49.885056967540905 ], [ 36.015109919970314, 49.886918639834676 ], [ 36.0132339141717, 49.886671273595887 ], [ 36.013180982633635, 49.886254518034377 ], [ 36.008551073911548, 49.883674412857637 ], [ 36.008731437972408, 49.882781197666972 ], [ 36.008398413739641, 49.881761938126772 ], [ 36.008471468600128, 49.881202531214861 ], [ 36.008004058229908, 49.880840092135657 ], [ 36.007103089817306, 49.879792019383302 ], [ 36.005463711552437, 49.879442564610628 ], [ 36.002137700965982, 49.879067120571818 ], [ 36.000746030298977, 49.878798290400354 ], [ 35.999979966324673, 49.878835553883995 ], [ 35.99972376093514, 49.879269031472759 ], [ 35.9997540124347, 49.880191622506942 ], [ 35.99919580935952, 49.880972650568303 ], [ 35.999778382631249, 49.881454097753327 ], [ 36.002389032267146, 49.881813308785375 ], [ 36.003984807916346, 49.881893894582376 ], [ 36.00457112771462, 49.882000644297015 ], [ 36.004602415486545, 49.882287298547894 ], [ 36.006978978446405, 49.882783143986366 ], [ 36.008552740476368, 49.882942638253816 ], [ 36.008294556305458, 49.883776896384283 ], [ 36.007988951543169, 49.884499140981553 ], [ 36.006995296586645, 49.88543089000833 ], [ 36.006855400608472, 49.885782964448858 ], [ 36.007241066298391, 49.886347885140111 ], [ 36.007022568331507, 49.886736844430018 ], [ 36.003720847762558, 49.886543744515365 ], [ 36.001968068779128, 49.888714679484579 ], [ 36.001696822166302, 49.889557970748207 ], [ 35.99928118209067, 49.888871383308981 ], [ 35.996111775972828, 49.888204242312696 ], [ 35.99503814331662, 49.89002648258338 ], [ 36.000942083322329, 49.89086676195172 ], [ 36.002980823421119, 49.891127532150527 ], [ 36.003766033079231, 49.891612418207401 ], [ 36.003406640446137, 49.893207150665539 ], [ 36.004685096145636, 49.893383066125551 ], [ 36.004296731463953, 49.895379261658682 ], [ 36.003535406078015, 49.896148153373566 ], [ 36.000812679902147, 49.897037547888964 ], [ 35.999402582842229, 49.89561060453584 ], [ 35.998170427794456, 49.895747030405943 ], [ 35.997780585464191, 49.896419158809351 ], [ 35.99861006858724, 49.897617240986158 ], [ 35.999604237598319, 49.897556661189682 ], [ 36.000274598989378, 49.898471386447376 ], [ 36.000934880140569, 49.898462996677232 ], [ 36.001566685492257, 49.898864760741297 ], [ 36.001790979626577, 49.900304985591468 ], [ 36.002160544612181, 49.900826784471562 ], [ 36.001672070353294, 49.900996240029841 ], [ 36.002662773443099, 49.902181405728022 ], [ 36.003139952256852, 49.902047083099802 ], [ 36.006368839380144, 49.905822343398576 ], [ 36.007538005828543, 49.906837327240822 ], [ 36.007653445578924, 49.907391838436972 ], [ 36.009662167334348, 49.909865884572035 ] ] ] } },
{ "type": "Feature", "properties": { "FID": 3, "istd_source_layer": "населені пункти південна міська громада", "istd_category": "settlements" }, "geometry": { "type": "Polygon", "coordinates": [ [ [ 36.091358296392094, 49.855865811065613 ], [ 36.08827535085986, 49.856540420508203 ], [ 36.089451095980252, 49.858495223644063 ], [ 36.086485841522858, 49.858905307699928 ], [ 36.086790089430067, 49.85987285625243 ], [ 36.087381990497427, 49.859857080020873 ], [ 36.087332888699407, 49.861199916746912 ], [ 36.085976240439606, 49.861479984882926 ], [ 36.08627856687513, 49.861994602446536 ], [ 36.088860408432886, 49.861908354988358 ], [ 36.091366209507427, 49.861475630408684 ], [ 36.091163060848388, 49.859982721607672 ], [ 36.093183122414025, 49.859963635957627 ], [ 36.093830382406807, 49.861235610157181 ], [ 36.094574397338164, 49.861912632235551 ], [ 36.094630000419443, 49.86278226943832 ], [ 36.097188293681754, 49.862748732846327 ], [ 36.097552732237766, 49.862547339931041 ], [ 36.096925387641654, 49.861588457737675 ], [ 36.096273591616779, 49.86024693164984 ], [ 36.095258525293893, 49.859124180261375 ], [ 36.091358296392094, 49.855865811065613 ] ] ] } },
{ "type": "Feature", "properties": { "FID": 4, "istd_source_layer": "населені пункти південна міська громада", "istd_category": "settlements" }, "geometry": { "type": "Polygon", "coordinates": [ [ [ 36.058845100083779, 49.853260752331359 ], [ 36.057717432209984, 49.853491948325733 ], [ 36.056669444238032, 49.853340571425036 ], [ 36.055594631788104, 49.854957907595313 ], [ 36.055572050686273, 49.855697041047165 ], [ 36.055076233662824, 49.856068199250323 ], [ 36.054138920142627, 49.856025779389213 ], [ 36.052918759071666, 49.856438406126948 ], [ 36.053010941109669, 49.859546784433711 ], [ 36.054121035906114, 49.861777889371552 ], [ 36.054019438608996, 49.862362445822434 ], [ 36.052885898336292, 49.862504227888017 ], [ 36.052785768833509, 49.862014509139414 ], [ 36.050782520565384, 49.862089670159293 ], [ 36.047742975803885, 49.862751566022347 ], [ 36.046070445502899, 49.863131260850359 ], [ 36.04551858892647, 49.864264765964982 ], [ 36.045222144637073, 49.865055855457832 ], [ 36.045921889521999, 49.865171735896951 ], [ 36.046039057748075, 49.864832956659072 ], [ 36.046453840270324, 49.86482204811837 ], [ 36.049123646588249, 49.865982691538143 ], [ 36.048740443718962, 49.867044632543134 ], [ 36.048040665557942, 49.86692876980058 ], [ 36.04807444020733, 49.867464997945667 ], [ 36.04849346695719, 49.86752111019301 ], [ 36.04836285487044, 49.868195943744389 ], [ 36.050511673154823, 49.868228892420703 ], [ 36.050846727100307, 49.868600525956204 ], [ 36.052249910793464, 49.86833976070546 ], [ 36.052299980543104, 49.868584620029168 ], [ 36.052662941259214, 49.868575055016088 ], [ 36.05267848103702, 49.868272517036246 ], [ 36.054260139216723, 49.867548235707467 ], [ 36.055430480170941, 49.866890732749667 ], [ 36.056297461413017, 49.866912619609074 ], [ 36.056353194177994, 49.867246847545118 ], [ 36.054751127468961, 49.86764718760805 ], [ 36.053865758797855, 49.868431449875068 ], [ 36.052172610874145, 49.869035573929366 ], [ 36.050485818117942, 49.869191907989503 ], [ 36.049076188305634, 49.869900418596458 ], [ 36.049062737747441, 49.870236470660863 ], [ 36.049514950535183, 49.870269325954233 ], [ 36.0493519617728, 49.870430275885603 ], [ 36.04890256321103, 49.870442105601356 ], [ 36.048451592380218, 49.871528208336969 ], [ 36.049267820905307, 49.871842422374542 ], [ 36.050103137069435, 49.871909949597175 ], [ 36.050633719964146, 49.871537899372569 ], [ 36.051840845442385, 49.871461342112774 ], [ 36.05279470144653, 49.871212408408006 ], [ 36.06141583092807, 49.870649178010851 ], [ 36.062640198804445, 49.87303384214345 ], [ 36.061141711149425, 49.873431530705908 ], [ 36.060602061129458, 49.874206707218399 ], [ 36.062049332718786, 49.875735051177799 ], [ 36.056969400854001, 49.879740942333918 ], [ 36.049660502515422, 49.886311843670903 ], [ 36.049734535207556, 49.886936529750862 ], [ 36.047266886387803, 49.889552765141929 ], [ 36.047633837579035, 49.889878809284262 ], [ 36.046465660040425, 49.890580929131488 ], [ 36.047031669011893, 49.89076746153026 ], [ 36.047854010691921, 49.890074435159647 ], [ 36.04980605422309, 49.891365850575603 ], [ 36.053204400244589, 49.893066721574314 ], [ 36.054672502764795, 49.894370809593013 ], [ 36.057128898741134, 49.895962121480984 ], [ 36.060629122131964, 49.894884989896312 ], [ 36.062401066496491, 49.896606170955735 ], [ 36.066674023823062, 49.895150349078051 ], [ 36.067885657298838, 49.894044035779828 ], [ 36.070199150418972, 49.893378490352241 ], [ 36.070697165494366, 49.892492475565803 ], [ 36.072045433646764, 49.892993847176385 ], [ 36.073939605656584, 49.890638472802912 ], [ 36.078195223021879, 49.891644468194087 ], [ 36.078695918740138, 49.890803106114539 ], [ 36.078657509292462, 49.890199869159325 ], [ 36.080827059322246, 49.888911295667882 ], [ 36.081221093295873, 49.888027998534419 ], [ 36.082706005785532, 49.88686949611067 ], [ 36.083626449300176, 49.887180697469262 ], [ 36.084252118832275, 49.886671682206781 ], [ 36.085431732443567, 49.887244528060272 ], [ 36.086794610590253, 49.88743201967079 ], [ 36.089273600052813, 49.886112658763174 ], [ 36.091394040874683, 49.886772250207926 ], [ 36.093154448952596, 49.88721761738806 ], [ 36.094410998632874, 49.886148984579336 ], [ 36.093682547920437, 49.885726436434041 ], [ 36.093841147582083, 49.885498400877012 ], [ 36.090497650454147, 49.884670070905557 ], [ 36.09084944988625, 49.884213085211833 ], [ 36.089502672878467, 49.883734272816909 ], [ 36.089048557909287, 49.884216362783128 ], [ 36.087180634433579, 49.883169540409462 ], [ 36.088221473444818, 49.882112318144287 ], [ 36.081787043477156, 49.878971445764144 ], [ 36.081551132218998, 49.87853012267334 ], [ 36.075124706714846, 49.875500572089813 ], [ 36.075708648629409, 49.874880809849564 ], [ 36.077734146663339, 49.874603210222283 ], [ 36.082389443177306, 49.874837503828381 ], [ 36.087901925583687, 49.874936862703386 ], [ 36.08822624339755, 49.874592516656705 ], [ 36.089502509018416, 49.874513723144759 ], [ 36.091162522214354, 49.873395195049248 ], [ 36.091921631109464, 49.873352554544809 ], [ 36.093116150648356, 49.87253736236373 ], [ 36.093359276979299, 49.873090370179852 ], [ 36.094865506348135, 49.87390057636587 ], [ 36.096481971305415, 49.873185974756439 ], [ 36.097426791249475, 49.873339753638746 ], [ 36.09811698623357, 49.872761794417265 ], [ 36.097271592303237, 49.872538222576466 ], [ 36.097980375306669, 49.872250707458704 ], [ 36.098906803478641, 49.871576904625208 ], [ 36.098891063104617, 49.871331145296388 ], [ 36.09995716314161, 49.870675976939332 ], [ 36.10090030805619, 49.871344513144685 ], [ 36.102944482553177, 49.870282667666167 ], [ 36.100025937820043, 49.867966150219459 ], [ 36.101336770029228, 49.867349177976386 ], [ 36.100308825248064, 49.866436734761237 ], [ 36.090148180629022, 49.866730636053312 ], [ 36.088955174785738, 49.867568138534047 ], [ 36.08940419698957, 49.868093283345594 ], [ 36.080380212305506, 49.871019218055586 ], [ 36.079589842107758, 49.870570254764715 ], [ 36.079315605558335, 49.869525686753349 ], [ 36.075904776883043, 49.869795352001347 ], [ 36.07565480184028, 49.867496853455286 ], [ 36.07508044666303, 49.86717640359425 ], [ 36.074164197091015, 49.867469284532937 ], [ 36.074272654923902, 49.86699642671298 ], [ 36.06833211907535, 49.866683965897764 ], [ 36.06671611637433, 49.864130689465135 ], [ 36.06518761780076, 49.864596367649419 ], [ 36.064542821722924, 49.864255350283955 ], [ 36.060978572550681, 49.865379073901977 ], [ 36.059724338783951, 49.865255553010194 ], [ 36.059629035874075, 49.864295733968589 ], [ 36.057599543355387, 49.862312753385005 ], [ 36.057378023320688, 49.860998185600501 ], [ 36.058648917661273, 49.858100000614158 ], [ 36.060780033314963, 49.85457481119272 ], [ 36.06071581379576, 49.854106529301511 ], [ 36.058789762505796, 49.853754572640241 ], [ 36.058845100083779, 49.853260752331359 ] ] ] } }
]
}
