{
  "type": "FeatureCollection",
  "features": [
    {
      "type": "Feature",
      "properties": {
        "name": "Дергачівська"
      },
      "geometry": {
        "type": "Polygon",
        "coordinates": [
          [
            [36.16066061010238, 50.14102560072445],
            [36.10550324687716, 50.14974886763105],
            [36.08723368984511, 50.14928410720603],
            [36.05672614870136, 50.13883784115339],
            [36.03898434220014, 50.1136118964057],
            [36.03279219782789, 50.08595046452018],
            [36.088384082494855, 50.070929108483256],
            [36.15012644064433, 50.07427143745875],
            [36.180757538600034, 50.102185214985184],
            [36.1745058396686, 50.11851921918847],
            [36.16066061010238, 50.14102560072445]
          ]
        ]
      }
    },
    {
      "type": "Feature",
      "properties": {
        "name": "Чугуївська"
      },
      "geometry": {
        "type": "Polygon",
        "coordinates": [
          [
            [36.644235285962395, 49.861426451993765],
            [36.625539483147605, 49.862602317333625],
            [36.61070442154576, 49.81460827918795],
            [36.64124634877578, 49.80582813241904],
            [36.712283226036874, 49.80335980565482],
            [36.73078055078986, 49.815348614425716],
            [36.74761504196832, 49.826806209375576],
            [36.72913422012127, 49.85276018557644],
            [36.719542980931834, 49.8615098236607],
            [36.6692278212484, 49.864956300635384],
            [36.644235285962395, 49.861426451993765]
          ]
        ]
      }
    },
    {
      "type": "Feature",
      "properties": {
        "name": "Зміївська"
      },
      "geometry": {
        "type": "Polygon",
        "coordinates": [
          [
            [36.33725070066683, 49.72625958555105],
            [36.30038793973577, 49.72214366616561],
            [36.274604492439806, 49.71163476614487],
            [36.27241135156959, 49.677003075226764],
            [36.303367505900184, 49.65366516627205],
            [36.37827691688901, 49.65521732961446],
            [36.441051027583654, 49.662342943104136],
            [36.446854736086294, 49.707406212768035],
            [36.394170764811975, 49.722474897415566],
            [36.33725070066683, 49.72625958555105]
          ]
        ]
      }
    },
    {
      "type": "Feature",
      "properties": {
        "name": "Мереф'янська"
      },
      "geometry": {
        "type": "Polygon",
        "coordinates": [
          [
            [36.0550, 49.8420],
            [36.0280, 49.8360],
            [36.0180, 49.8230],
            [36.0100, 49.8040],
            [36.0200, 49.7870],
            [36.0450, 49.7780],
            [36.0780, 49.7800],
            [36.1040, 49.7920],
            [36.1160, 49.8110],
            [36.1040, 49.8300],
            [36.0820, 49.8400],
            [36.0550, 49.8420]
          ]
        ]
      }
    },
    {
      "type": "Feature",
      "properties": {
        "name": "Південна"
      },
      "geometry": {
        "type": "Polygon",
        "coordinates": [
          [
            [36.067973615137305, 49.903008924835945],
            [36.04230753966536, 49.90248488152517],
            [36.02085750541079, 49.89166926233813],
            [36.01856457071406, 49.87789608933659],
            [36.02958545038416, 49.861115151648534],
            [36.0593196357986, 49.85200714585096],
            [36.09253020607687, 49.86092442567133],
            [36.112426961989684, 49.883234255965135],
            [36.09615452220996, 49.89786352590383],
            [36.067973615137305, 49.903008924835945]
          ]
        ]
      }
    }
  ]
}